[{"OBJECT_NAME":"JILIN-1 05","OBJECT_ID":"2017-074B","EPOCH":"2026-03-09T21:56:30.612480","MEAN_MOTION":15.3245271,"ECCENTRICITY":0.00045948,"INCLINATION":97.4781,"RA_OF_ASC_NODE":173.8936,"ARG_OF_PERICENTER":206.4038,"MEAN_ANOMALY":153.6971,"EPHEMERIS_TYPE":0,"CLASSIFICATION_TYPE":"U","NORAD_CAT_ID":43023,"ELEMENT_SET_NO":999,"REV_AT_EPOCH":45879,"BSTAR":0.00026108793,"MEAN_MOTION_DOT":8.104e-5,"MEAN_MOTION_DDOT":0},{"OBJECT_NAME":"STARLINK-32261","OBJECT_ID":"2024-183X","EPOCH":"2026-03-09T12:23:13.003872","MEAN_MOTION":15.30190043,"ECCENTRICITY":0.00012029,"INCLINATION":53.1601,"RA_OF_ASC_NODE":143.417,"ARG_OF_PERICENTER":82.6192,"MEAN_ANOMALY":277.4945,"EPHEMERIS_TYPE":0,"CLASSIFICATION_TYPE":"U","NORAD_CAT_ID":61530,"ELEMENT_SET_NO":999,"REV_AT_EPOCH":7962,"BSTAR":-5.1077391e-5,"MEAN_MOTION_DOT":-1.871e-5,"MEAN_MOTION_DDOT":0}]
